STARLINK-32298          
1 61525U 24183S   26068.47073154  .00001822  00000+0  73648-4 0  9994
2 61525  53.1612 143.1144 0001257  88.4931 271.6213 15.30197754 79623
TEVEL2-9                
1 63237U 25052AD  26068.70229538  .00018694  00000+0  67240-3 0  9992
2 63237  97.4057 324.3929 0007990 124.2475 235.9522 15.28633834 54816
